GLOBALSTAR M001 [-]     
1 25162U 98008A   23237.90748546 -.00000111  00000+0 -10665-3 0  9996
2 25162  52.0031  97.8521 0001336 331.8016 135.1622 12.38166409161790
GLOBALSTAR M004 [-]     
1 25163U 98008B   23237.45232083 -.00000077  00000+0  14813-3 0  9990
2 25163  51.9980 272.8578 0002818 256.5875 244.3443 12.63336529178041
GLOBALSTAR M002 [-]     
1 25164U 98008C   23237.89634590 -.00000076  00000+0  54793-5 0  9990
2 25164  52.0006  98.2580 0001984  29.8719 330.2214 11.61495407107228
GLOBALSTAR M003 [-]     
1 25165U 98008D   23238.05128003  .00000052  00000+0  15075-2 0  9997
2 25165  51.9706 199.7597 0008060  43.3135  34.5294 12.11931626153142
GLOBALSTAR M008 [-]     
1 25309U 98023D   23237.69331701 -.00000046  00000+0  39281-3 0  9994
2 25309  51.9985 315.8223 0002506 208.3409 276.2553 12.36026320156042
